FLOCK 4G-33             
1 62685U 25009CE  26202.15677310  .00004372  00000+0  17367-3 0  9997
2 62685  97.3937 281.6446 0005188 191.7900 168.3218 15.25841099 83988
FLOCK 4H-1              
1 66704U 25276AQ  26202.13320449  .00004731  00000+0  21713-3 0  9994
2 66704  97.4161 275.2873 0002600 158.6833 201.4511 15.20896086 35590
FLOCK 4H-2              
1 66705U 25276AR  26202.17162212  .00005026  00000+0  22863-3 0  9996
2 66705  97.4156 275.3758 0002020 147.9959 212.1400 15.21169830 35603
FLOCK 4H-3              
1 66706U 25276AS  26202.16510801  .00004708  00000+0  21992-3 0  9995
2 66706  97.4226 275.2916 0002981 219.0249 141.0772 15.20287674 35581
FLOCK 4H-4              
1 66707U 25276AT  26202.20199198  .00004957  00000+0  23271-3 0  9991
2 66707  97.4209 275.1917 0003567 224.9742 135.1205 15.20081962 35584
FLOCK 4H-5              
1 66708U 25276AU  26202.12526752  .00004263  00000+0  19566-3 0  9995
2 66708  97.4158 275.3012 0001673 136.1813 223.9556 15.20946189 35592
FLOCK 4H-6              
1 66709U 25276AV  26202.10659709  .00004845  00000+0  22386-3 0  9993
2 66709  97.4210 275.3276 0003094 182.9794 177.1423 15.20648780 35588
FLOCK 4H-7              
1 66710U 25276AW  26202.15506625  .00004987  00000+0  23181-3 0  9999
2 66710  97.4168 275.1274 0000880 232.5469 127.5686 15.20425391 35580
FLOCK 4H-8              
1 66711U 25276AX  26202.14553599  .00005146  00000+0  23836-3 0  9996
2 66711  97.4206 275.2719 0002191 233.5695 126.5338 15.20534114 35585
FLOCK 4H-9              
1 66712U 25276AY  26202.15816422  .00005485  00000+0  25164-3 0  9997
2 66712  97.4198 275.3809 0003051 189.9618 170.1557 15.20837347 35595
FLOCK 4H-10             
1 66713U 25276AZ  26202.18556273  .00004620  00000+0  21633-3 0  9993
2 66713  97.4174 275.1098 0003359 225.0380 135.0584 15.20209359 35582
FLOCK 4H-11             
1 66714U 25276BA  26202.13243221  .00010784  00000+0  45555-3 0  9992
2 66714  97.4179 275.6797 0001988 212.5303 147.5811 15.23424718 35617
FLOCK 4H-12             
1 66715U 25276BB  26202.14510852  .00005594  00000+0  25634-3 0  9990
2 66715  97.4171 275.3020 0002580 166.1201 194.0106 15.20864592 35907
FLOCK 4H-13             
1 66716U 25276BC  26202.11532287  .00004299  00000+0  19722-3 0  9996
2 66716  97.4206 275.4498 0002270 135.0279 225.1141 15.20961851 35599
FLOCK 4H-14             
1 66717U 25276BD  26202.13980643  .00005116  00000+0  23101-3 0  9997
2 66717  97.4187 275.5232 0002212 136.0690 224.0722 15.21412531 34857
FLOCK 4H-15             
1 66718U 25276BE  26202.15480042  .00005022  00000+0  23679-3 0  9994
2 66718  97.4202 275.0842 0002910 241.3653 118.7289 15.19927845 35575
