{"fetched_at":"2026-07-21T17:53:07.094Z","source":"https://celestrak.org/NORAD/elements/gp.php?GROUP=planet&FORMAT=JSON","constellation":"superdove","records":[{"OBJECT_NAME":"FLOCK 4G-33","OBJECT_ID":"2025-009CE","EPOCH":"2026-07-21T03:45:45.195840","CLASSIFICATION_TYPE":"U","MEAN_MOTION":15.25841099,"ECCENTRICITY":0.00051888,"INCLINATION":97.3937,"RA_OF_ASC_NODE":281.6446,"ARG_OF_PERICENTER":191.79,"MEAN_ANOMALY":168.3218,"EPHEMERIS_TYPE":0,"NORAD_CAT_ID":62685,"ELEMENT_SET_NO":999,"REV_AT_EPOCH":8398,"BSTAR":0.00017367155,"MEAN_MOTION_DOT":0.00004372,"MEAN_MOTION_DDOT":0},{"OBJECT_NAME":"FLOCK 4H-1","OBJECT_ID":"2025-276AQ","EPOCH":"2026-07-21T03:11:48.867936","CLASSIFICATION_TYPE":"U","MEAN_MOTION":15.20896086,"ECCENTRICITY":0.00026004,"INCLINATION":97.4161,"RA_OF_ASC_NODE":275.2873,"ARG_OF_PERICENTER":158.6833,"MEAN_ANOMALY":201.4511,"EPHEMERIS_TYPE":0,"NORAD_CAT_ID":66704,"ELEMENT_SET_NO":999,"REV_AT_EPOCH":3559,"BSTAR":0.00021712736,"MEAN_MOTION_DOT":0.00004731,"MEAN_MOTION_DDOT":0},{"OBJECT_NAME":"FLOCK 4H-2","OBJECT_ID":"2025-276AR","EPOCH":"2026-07-21T04:07:08.151168","CLASSIFICATION_TYPE":"U","MEAN_MOTION":15.2116983,"ECCENTRICITY":0.00020203,"INCLINATION":97.4156,"RA_OF_ASC_NODE":275.3758,"ARG_OF_PERICENTER":147.9959,"MEAN_ANOMALY":212.14,"EPHEMERIS_TYPE":0,"NORAD_CAT_ID":66705,"ELEMENT_SET_NO":999,"REV_AT_EPOCH":3560,"BSTAR":0.00022863326,"MEAN_MOTION_DOT":0.00005026,"MEAN_MOTION_DDOT":0},{"OBJECT_NAME":"FLOCK 4H-3","OBJECT_ID":"2025-276AS","EPOCH":"2026-07-21T03:57:45.332064","CLASSIFICATION_TYPE":"U","MEAN_MOTION":15.20287674,"ECCENTRICITY":0.00029816,"INCLINATION":97.4226,"RA_OF_ASC_NODE":275.2916,"ARG_OF_PERICENTER":219.0249,"MEAN_ANOMALY":141.0772,"EPHEMERIS_TYPE":0,"NORAD_CAT_ID":66706,"ELEMENT_SET_NO":999,"REV_AT_EPOCH":3558,"BSTAR":0.00021992254,"MEAN_MOTION_DOT":0.00004708,"MEAN_MOTION_DDOT":0},{"OBJECT_NAME":"FLOCK 4H-4","OBJECT_ID":"2025-276AT","EPOCH":"2026-07-21T04:50:52.107072","CLASSIFICATION_TYPE":"U","MEAN_MOTION":15.20081962,"ECCENTRICITY":0.00035678,"INCLINATION":97.4209,"RA_OF_ASC_NODE":275.1917,"ARG_OF_PERICENTER":224.9742,"MEAN_ANOMALY":135.1205,"EPHEMERIS_TYPE":0,"NORAD_CAT_ID":66707,"ELEMENT_SET_NO":999,"REV_AT_EPOCH":3558,"BSTAR":0.00023270924,"MEAN_MOTION_DOT":0.00004957,"MEAN_MOTION_DDOT":0},{"OBJECT_NAME":"FLOCK 4H-5","OBJECT_ID":"2025-276AU","EPOCH":"2026-07-21T03:00:23.113728","CLASSIFICATION_TYPE":"U","MEAN_MOTION":15.20946189,"ECCENTRICITY":0.00016731,"INCLINATION":97.4158,"RA_OF_ASC_NODE":275.3012,"ARG_OF_PERICENTER":136.1813,"MEAN_ANOMALY":223.9556,"EPHEMERIS_TYPE":0,"NORAD_CAT_ID":66708,"ELEMENT_SET_NO":999,"REV_AT_EPOCH":3559,"BSTAR":0.00019565681,"MEAN_MOTION_DOT":0.00004263,"MEAN_MOTION_DDOT":0},{"OBJECT_NAME":"FLOCK 4H-6","OBJECT_ID":"2025-276AV","EPOCH":"2026-07-21T02:33:29.988576","CLASSIFICATION_TYPE":"U","MEAN_MOTION":15.2064878,"ECCENTRICITY":0.00030948,"INCLINATION":97.421,"RA_OF_ASC_NODE":275.3276,"ARG_OF_PERICENTER":182.9794,"MEAN_ANOMALY":177.1423,"EPHEMERIS_TYPE":0,"NORAD_CAT_ID":66709,"ELEMENT_SET_NO":999,"REV_AT_EPOCH":3558,"BSTAR":0.00022386204,"MEAN_MOTION_DOT":0.00004845,"MEAN_MOTION_DDOT":0},{"OBJECT_NAME":"FLOCK 4H-7","OBJECT_ID":"2025-276AW","EPOCH":"2026-07-21T03:43:17.724000","CLASSIFICATION_TYPE":"U","MEAN_MOTION":15.20425391,"ECCENTRICITY":0.00008805,"INCLINATION":97.4168,"RA_OF_ASC_NODE":275.1274,"ARG_OF_PERICENTER":232.5469,"MEAN_ANOMALY":127.5686,"EPHEMERIS_TYPE":0,"NORAD_CAT_ID":66710,"ELEMENT_SET_NO":999,"REV_AT_EPOCH":3558,"BSTAR":0.00023181389,"MEAN_MOTION_DOT":0.00004987,"MEAN_MOTION_DDOT":0},{"OBJECT_NAME":"FLOCK 4H-8","OBJECT_ID":"2025-276AX","EPOCH":"2026-07-21T03:29:34.309536","CLASSIFICATION_TYPE":"U","MEAN_MOTION":15.20534114,"ECCENTRICITY":0.00021919,"INCLINATION":97.4206,"RA_OF_ASC_NODE":275.2719,"ARG_OF_PERICENTER":233.5695,"MEAN_ANOMALY":126.5338,"EPHEMERIS_TYPE":0,"NORAD_CAT_ID":66711,"ELEMENT_SET_NO":999,"REV_AT_EPOCH":3558,"BSTAR":0.00023836363,"MEAN_MOTION_DOT":0.00005146,"MEAN_MOTION_DDOT":0},{"OBJECT_NAME":"FLOCK 4H-9","OBJECT_ID":"2025-276AY","EPOCH":"2026-07-21T03:47:45.388608","CLASSIFICATION_TYPE":"U","MEAN_MOTION":15.20837347,"ECCENTRICITY":0.00030519,"INCLINATION":97.4198,"RA_OF_ASC_NODE":275.3809,"ARG_OF_PERICENTER":189.9618,"MEAN_ANOMALY":170.1557,"EPHEMERIS_TYPE":0,"NORAD_CAT_ID":66712,"ELEMENT_SET_NO":999,"REV_AT_EPOCH":3559,"BSTAR":0.00025163871,"MEAN_MOTION_DOT":0.00005485,"MEAN_MOTION_DDOT":0},{"OBJECT_NAME":"FLOCK 4H-10","OBJECT_ID":"2025-276AZ","EPOCH":"2026-07-21T04:27:12.619872","CLASSIFICATION_TYPE":"U","MEAN_MOTION":15.20209359,"ECCENTRICITY":0.00033591,"INCLINATION":97.4174,"RA_OF_ASC_NODE":275.1098,"ARG_OF_PERICENTER":225.038,"MEAN_ANOMALY":135.0584,"EPHEMERIS_TYPE":0,"NORAD_CAT_ID":66713,"ELEMENT_SET_NO":999,"REV_AT_EPOCH":3558,"BSTAR":0.00021633295,"MEAN_MOTION_DOT":0.0000462,"MEAN_MOTION_DDOT":0},{"OBJECT_NAME":"FLOCK 4H-11","OBJECT_ID":"2025-276BA","EPOCH":"2026-07-21T03:10:42.142944","CLASSIFICATION_TYPE":"U","MEAN_MOTION":15.23424718,"ECCENTRICITY":0.00019881,"INCLINATION":97.4179,"RA_OF_ASC_NODE":275.6797,"ARG_OF_PERICENTER":212.5303,"MEAN_ANOMALY":147.5811,"EPHEMERIS_TYPE":0,"NORAD_CAT_ID":66714,"ELEMENT_SET_NO":999,"REV_AT_EPOCH":3561,"BSTAR":0.00045555305,"MEAN_MOTION_DOT":0.00010784,"MEAN_MOTION_DDOT":0},{"OBJECT_NAME":"FLOCK 4H-12","OBJECT_ID":"2025-276BB","EPOCH":"2026-07-21T03:28:57.376128","CLASSIFICATION_TYPE":"U","MEAN_MOTION":15.20864592,"ECCENTRICITY":0.000258,"INCLINATION":97.4171,"RA_OF_ASC_NODE":275.302,"ARG_OF_PERICENTER":166.1201,"MEAN_ANOMALY":194.0106,"EPHEMERIS_TYPE":0,"NORAD_CAT_ID":66715,"ELEMENT_SET_NO":999,"REV_AT_EPOCH":3590,"BSTAR":0.00025634173,"MEAN_MOTION_DOT":0.00005594,"MEAN_MOTION_DDOT":0},{"OBJECT_NAME":"FLOCK 4H-13","OBJECT_ID":"2025-276BC","EPOCH":"2026-07-21T02:46:03.895968","CLASSIFICATION_TYPE":"U","MEAN_MOTION":15.20961851,"ECCENTRICITY":0.00022704,"INCLINATION":97.4206,"RA_OF_ASC_NODE":275.4498,"ARG_OF_PERICENTER":135.0279,"MEAN_ANOMALY":225.1141,"EPHEMERIS_TYPE":0,"NORAD_CAT_ID":66716,"ELEMENT_SET_NO":999,"REV_AT_EPOCH":3559,"BSTAR":0.00019722375,"MEAN_MOTION_DOT":0.00004299,"MEAN_MOTION_DDOT":0},{"OBJECT_NAME":"FLOCK 4H-14","OBJECT_ID":"2025-276BD","EPOCH":"2026-07-21T03:21:19.275552","CLASSIFICATION_TYPE":"U","MEAN_MOTION":15.21412531,"ECCENTRICITY":0.00022128,"INCLINATION":97.4187,"RA_OF_ASC_NODE":275.5232,"ARG_OF_PERICENTER":136.069,"MEAN_ANOMALY":224.0722,"EPHEMERIS_TYPE":0,"NORAD_CAT_ID":66717,"ELEMENT_SET_NO":999,"REV_AT_EPOCH":3485,"BSTAR":0.00023101166,"MEAN_MOTION_DOT":0.00005116,"MEAN_MOTION_DDOT":0},{"OBJECT_NAME":"FLOCK 4H-15","OBJECT_ID":"2025-276BE","EPOCH":"2026-07-21T03:42:54.756288","CLASSIFICATION_TYPE":"U","MEAN_MOTION":15.19927845,"ECCENTRICITY":0.00029109,"INCLINATION":97.4202,"RA_OF_ASC_NODE":275.0842,"ARG_OF_PERICENTER":241.3653,"MEAN_ANOMALY":118.7289,"EPHEMERIS_TYPE":0,"NORAD_CAT_ID":66718,"ELEMENT_SET_NO":999,"REV_AT_EPOCH":3557,"BSTAR":0.00023678704,"MEAN_MOTION_DOT":0.00005022,"MEAN_MOTION_DDOT":0}]}
